ION SCV-004             
1 50993U 22002K   26068.68892644  .00006538  00000+0  23198-3 0  9998
2 50993  97.2961 128.2294 0007216   1.6783 358.4480 15.29369331230088
STARLINK-34120          
1 63898U 25095J   26068.75807320  .00041047  00000+0  14887-2 0  9994
2 63898  43.0014 175.3680 0001716 266.8554  93.2101 15.27671911 47804
